H1 CPF 01  gfz 2022 12 24 01  8581 tandemx   
H2 1003001  6202 36605    2022 12 24 00 59 42 2022 12 29 00 00 42   120 1 1  0 0 0
H9
10 0 59939  29502.000000  0    5383475.781  -3759717.494  -2093423.945
10 0 59939  29622.000000  0    5009363.969  -3715882.889  -2934120.912
10 0 59939  29742.000000  0    4549346.745  -3599988.647  -3723319.726
10 0 59939  29862.000000  0    4012779.695  -3412698.713  -4447236.538
10 0 59939  29982.000000  0    3410311.457  -3156091.932  -5093262.967
10 0 59939  30102.000000  0    2753665.104  -2833638.476  -5650179.183
10 0 59939  30222.000000  0    2055405.591  -2450150.462  -6108338.472
10 0 59939  30342.000000  0    1328697.991  -2011707.998  -6459824.477
10 0 59939  30462.000000  0     587058.773  -1525559.354  -6698578.306
10 0 59939  30582.000000  0    -155893.335   -999999.482  -6820491.946
10 0 59939  30702.000000  0    -886682.440   -444229.702  -6823470.358
10 0 59939  30822.000000  0   -1592213.845    131799.948  -6707463.289
10 0 59939  30942.000000  0   -2260003.420    717564.519  -6474465.343
10 0 59939  31062.000000  0   -2878393.238   1302151.229  -6128485.216
10 0 59939  31182.000000  0   -3436751.661   1874457.615  -5675484.640
10 0 59939  31302.000000  0   -3925656.753   2423398.371  -5123287.300
10 0 59939  31422.000000  0   -4337059.709   2938118.437  -4481455.193
10 0 59939  31542.000000  0   -4664423.107   3408207.299  -3761132.883
10 0 59939  31662.000000  0   -4902831.601   3823910.670  -2974863.877
10 0 59939  31782.000000  0   -5049073.527   4176335.651  -2136378.717
10 0 59939  31902.000000  0   -5101689.728   4457643.216  -1260358.161
10 0 59939  32022.000000  0   -5060989.046   4661224.339   -362175.261
10 0 59939  32142.000000  0   -4929027.926   4781854.508    542379.435
10 0 59939  32262.000000  0   -4709554.163   4815821.775   1437383.713
10 0 59939  32382.000000  0   -4407915.990   4761023.591   2307073.763
10 0 59939  32502.000000  0   -4030937.626   4617031.390   3136130.931
10 0 59939  32622.000000  0   -3586766.008   4385121.012   3909958.563
10 0 59939  32742.000000  0   -3084693.488   4068268.340   4614943.671
10 0 59939  32862.000000  0   -2534960.567   3671110.905   5238699.081
10 0 59939  32982.000000  0   -1948542.671   3199875.707   5770280.664
10 0 59939  33102.000000  0   -1336926.886   2662275.912   6200375.807
10 0 59939  33222.000000  0    -711883.613   2067378.568   6521460.455
10 0 59939  33342.000000  0     -85239.872   1425447.699   6727923.308
10 0 59939  33462.000000  0     531344.192    747764.895   6816159.112
10 0 59939  33582.000000  0    1126591.834     46430.291   6784626.884
10 0 59939  33702.000000  0    1689814.748   -665852.524   6633875.521
10 0 59939  33822.000000  0    2211104.471  -1376006.243   6366535.422
10 0 59939  33942.000000  0    2681507.015  -2070819.017   5987276.035
10 0 59939  34062.000000  0    3093179.098  -2737190.954   5502729.840
10 0 59939  34182.000000  0    3439521.764  -3362382.722   4921381.823
10 0 59939  34302.000000  0    3715289.674  -3934262.434   4253426.874
10 0 59939  34422.000000  0    3916674.511  -4441545.910   3510595.308
10 0 59939  34542.000000  0    4041359.073  -4874025.130   2705948.610
10 0 59939  34662.000000  0    4088541.628  -5222779.522   1853648.956
10 0 59939  34782.000000  0    4058929.296  -5480364.405    968705.898
10 0 59939  34902.000000  0    3954699.853  -5640971.359     66705.394
10 0 59939  35022.000000  0    3779434.218  -5700557.015   -836471.623
10 0 59939  35142.000000  0    3538020.084  -5656937.916  -1724938.517
10 0 59939  35262.000000  0    3236528.469  -5509846.009  -2583090.566
10 0 59939  35382.000000  0    2882068.714  -5260946.338  -3395885.385
10 0 59939  35502.000000  0    2482623.594  -4913815.194  -4149110.627
10 0 59939  35622.000000  0    2046869.756  -4473880.440  -4829631.893
10 0 59939  35742.000000  0    1583989.332  -3948326.361  -5425616.744
10 0 59939  35862.000000  0    1103477.867  -3345966.666  -5926731.908
10 0 59939  35982.000000  0     614951.060  -2677089.572  -6324312.080
10 0 59939  36102.000000  0     127954.399  -1953277.396  -6611498.753
10 0 59939  36222.000000  0    -348219.773  -1187203.796  -6783347.564
10 0 59939  36342.000000  0    -804704.544   -392412.956  -6836904.423
10 0 59939  36462.000000  0   -1233218.903    416915.868  -6771250.153
10 0 59939  36582.000000  0   -1626214.499   1226214.735  -6587513.783
10 0 59939  36702.000000  0   -1977005.352   2020782.671  -6288855.128
10 0 59939  36822.000000  0   -2279879.718   2786045.956  -5880417.003
10 0 59939  36942.000000  0   -2530193.462   3507821.984  -5369246.677
10 0 59939  37062.000000  0   -2724442.256   4172581.233  -4764185.780
10 0 59939  37182.000000  0   -2860312.548   4767704.031  -4075728.661
10 0 59939  37302.000000  0   -2936708.434   5281725.404  -3315849.000
10 0 59939  37422.000000  0   -2953753.572   5704562.043  -2497799.327
10 0 59939  37542.000000  0   -2912769.508   6027719.947  -1635885.856
10 0 59939  37662.000000  0   -2816228.395   6244475.060   -745217.966
10 0 59939  37782.000000  0   -2667681.672   6350019.577    158559.011
10 0 59939  37902.000000  0   -2471668.080   6341575.675   1059543.826
10 0 59939  38022.000000  0   -2233598.654   6218467.358   1941870.879
10 0 59939  38142.000000  0   -1959622.690   5982146.423   2789999.623
10 0 59939  38262.000000  0   -1656480.391   5636176.075   3588995.654
10 0 59939  38382.000000  0   -1331345.847   5186173.116   4324799.012
10 0 59939  38502.000000  0    -991663.916   4639709.590   4984475.416
10 0 59939  38622.000000  0    -644983.035   4006175.628   5556444.137
10 0 59939  38742.000000  0    -298791.084   3296609.615   6030677.901
10 0 59939  38862.000000  0      39642.974   2523497.371   6398874.627
10 0 59939  38982.000000  0     363418.965   1700546.467   6654596.176
10 0 59939  39102.000000  0     666144.145    842439.363   6793375.563
10 0 59939  39222.000000  0     942057.671    -35430.354   6812789.148
10 0 59939  39342.000000  0    1186139.074   -917232.838   6712496.739
10 0 59939  39462.000000  0    1394199.291  -1786987.217   6494248.011
10 0 59939  39582.000000  0    1562952.844  -2628850.744   6161854.282
10 0 59939  39702.000000  0    1690069.973  -3427408.705   5721126.334
10 0 59939  39822.000000  0    1774207.491  -4167959.548   5179777.589
10 0 59939  39942.000000  0    1815018.575  -4836788.697   4547294.223
10 0 59939  40062.000000  0    1813142.031  -5421428.922   3834775.663
10 0 59939  40182.000000  0    1770170.074  -5910902.851   3054742.818
10 0 59939  40302.000000  0    1688593.788  -6295937.481   2220917.312
10 0 59939  40422.000000  0    1571729.756  -6569147.905   1347978.629
10 0 59939  40542.000000  0    1423628.631  -6725187.069    451301.445
10 0 59939  40662.000000  0    1248967.106  -6760856.028   -453322.192
10 0 59939  40782.000000  0    1052925.348  -6675172.150  -1349971.643
10 0 59939  40902.000000  0     841054.198  -6469388.138  -2222888.073
10 0 59939  41022.000000  0     619136.086  -6146966.412  -3056757.641
10 0 59939  41142.000000  0     393044.290  -5713511.354  -3836984.326
10 0 59939  41262.000000  0     168602.131  -5176659.863  -4549946.873
10 0 59939  41382.000000  0     -48554.128  -4545933.390  -5183233.288
10 0 59939  41502.000000  0    -253104.802  -3832557.603  -5725850.110
10 0 59939  41622.000000  0    -440166.181  -3049252.822  -6168404.076
10 0 59939  41742.000000  0    -605397.251  -2210000.712  -6503253.559
10 0 59939  41862.000000  0    -745092.274  -1329792.015  -6724628.916
10 0 59939  41982.000000  0    -856257.662   -424360.469  -6828721.961
10 0 59939  42102.000000  0    -936671.784    490094.532  -6813744.335
10 0 59939  42222.000000  0    -984927.146   1397190.666  -6679953.680
10 0 59939  42342.000000  0   -1000454.586   2280648.519  -6429649.655
10 0 59939  42462.000000  0    -983528.947   3124576.391  -6067139.292
10 0 59939  42582.000000  0    -935256.234   3913752.573  -5598672.065
10 0 59939  42702.000000  0    -857542.234   4633899.038  -5032342.364
10 0 59939  42822.000000  0    -753043.176   5271942.952  -4377961.563
10 0 59939  42942.000000  0    -625099.345   5816261.299  -3646898.292
10 0 59939  43062.000000  0    -477652.165   6256902.052  -2851889.090
10 0 59939  43182.000000  0    -315146.290   6585777.822  -2006822.593
10 0 59939  43302.000000  0    -142419.048   6796827.135  -1126498.893
10 0 59939  43422.000000  0      35420.580   6886138.066   -226368.683
10 0 59939  43542.000000  0     213120.931   6852030.683    677742.927
10 0 59939  43662.000000  0     385420.987   6695095.381   1569922.799
10 0 59939  43782.000000  0     547183.805   6418184.207   2434459.503
10 0 59939  43902.000000  0     693526.204   6026355.864   3256127.734
10 0 59939  44022.000000  0     819942.441   5526778.457   4020462.920
10 0 59939  44142.000000  0     922420.893   4928592.561   4714020.937
10 0 59939  44262.000000  0     997546.022   4242731.455   5324620.427
10 0 59939  44382.000000  0    1042586.617   3481709.320   5841551.585
10 0 59939  44502.000000  0    1055568.975   2659385.645   6255759.865
10 0 59939  44622.000000  0    1035330.857   1790705.964   6559999.524
10 0 59939  44742.000000  0     981557.094    891425.459   6748954.627
10 0 59939  44862.000000  0     894796.047    -22179.104   6819325.463
10 0 59939  44982.000000  0     776456.498   -933602.636   6769882.856
10 0 59939  45102.000000  0     628784.708  -1826409.881   6601489.555
10 0 59939  45222.000000  0     454821.924  -2684531.619   6317086.353
10 0 59939  45342.000000  0     258343.079  -3492555.650   5921643.802
10 0 59939  45462.000000  0      43778.209  -4236004.795   5422077.584
10 0 59939  45582.000000  0    -183881.644  -4901598.161   4827134.014
10 0 59939  45702.000000  0    -419193.067  -5477495.342   4147245.281
10 0 59939  45822.000000  0    -656382.932  -5953518.022   3394350.870
10 0 59939  45942.000000  0    -889481.678  -6321339.582   2581688.949
99
